OBJECT_NAME,OBJECT_ID,EPOCH,MEAN_MOTION,ECCENTRICITY,INCLINATION,RA_OF_ASC_NODE,ARG_OF_PERICENTER,MEAN_ANOMALY,EPHEMERIS_TYPE,CLASSIFICATION_TYPE,NORAD_CAT_ID,ELEMENT_SET_NO,REV_AT_EPOCH,BSTAR,MEAN_MOTION_DOT,MEAN_MOTION_DDOT
STARLINK-37359,2026-114G,2026-06-11T18:24:21.670272,15.78110132,.0001175,53.1595,229.4899,97.9539,262.1616,0,U,69188,999,391,.80674E-3,.142106E-2,0
STARLINK-37440,2026-114H,2026-06-11T15:53:05.373600,15.80914184,.0000878,53.1593,229.5239,59.8486,300.2624,0,U,69189,999,390,.48036E-3,.95342E-3,0
STARLINK-37282,2026-114J,2026-06-11T20:00:01.999008,15.78109149,.0001032,53.1593,229.0826,71.1168,343.3150,0,U,69190,999,395,-.77307E-3,-.133146E-2,0
STARLINK-37422,2026-114K,2026-06-11T18:03:24.469056,15.80914115,.0001021,53.1586,229.3927,85.0874,275.0265,0,U,69191,999,391,.57325E-3,.114164E-2,0
STARLINK-37424,2026-114L,2026-06-11T15:12:49.882752,15.78104375,.0000812,53.1596,230.0793,39.2526,320.8554,0,U,69192,999,389,.10368E-2,.183675E-2,0
STARLINK-36666,2026-114M,2026-06-11T20:00:01.999008,15.80908461,.0001004,53.1583,228.9900,77.0207,23.0248,0,U,69193,999,395,-.37435E-3,-.74072E-3,0
STARLINK-37355,2026-114N,2026-06-11T18:02:38.574240,15.80966813,.0001201,53.1583,229.3892,91.3780,268.7380,0,U,69194,999,391,.11528E-2,.234103E-2,0
STARLINK-37166,2026-114P,2026-06-11T19:31:31.316160,15.80928135,.0001002,53.1583,229.0629,87.0572,273.0565,0,U,69195,999,392,.7604E-3,.152443E-2,0
STARLINK-36933,2026-114Q,2026-06-11T18:01:34.079232,15.80933612,.0001458,53.1585,229.3837,52.6739,307.4416,0,U,69196,999,391,.92346E-3,.186061E-2,0
STARLINK-37419,2026-114R,2026-06-11T17:59:24.563040,15.80936443,.0001314,53.1582,229.3733,65.4047,294.7112,0,U,69197,999,391,.10708E-2,.216662E-2,0
STARLINK-37321,2026-114S,2026-06-11T14:56:15.150048,15.80920820,.0001117,53.1588,230.0024,47.8924,312.2194,0,U,69198,999,389,.56172E-3,.11186E-2,0
STARLINK-37406,2026-114T,2026-06-11T14:55:10.528032,15.80941103,.0001134,53.1582,229.9977,69.1960,290.9184,0,U,69199,999,389,.11492E-2,.233079E-2,0
STARLINK-37761,2026-114U,2026-06-11T17:56:09.799296,15.80970057,.0001163,53.1580,229.3584,51.3523,308.7603,0,U,69200,999,391,.13164E-2,.268547E-2,0
STARLINK-37754,2026-114V,2026-06-11T17:54:48.201408,15.80897849,.0001237,53.1578,229.3513,100.2885,259.8278,0,U,69201,999,391,.71015E-3,.141951E-2,0
STARLINK-37649,2026-114W,2026-06-11T17:54:00.257184,15.80902656,.0001002,53.1583,229.3498,78.8789,281.2347,0,U,69202,999,391,.47265E-3,.93733E-3,0
STARLINK-37604,2026-114X,2026-06-11T14:50:51.086112,15.80938085,.0001201,53.1582,229.9772,42.5996,317.5119,0,U,69203,999,389,.82385E-3,.165551E-2,0
STARLINK-37669,2026-114Y,2026-06-11T17:51:50.075712,15.80982946,.0000814,53.1582,229.3388,137.1266,222.9820,0,U,69204,999,391,.119E-2,.242104E-2,0
STARLINK-37691,2026-114Z,2026-06-11T13:25:06.197664,15.78097845,.0001172,53.1588,230.3175,90.5523,269.5633,0,U,69205,999,388,.1009E-2,.178574E-2,0
STARLINK-37671,2026-114AA,2026-06-11T17:49:40.298592,15.80977654,.0001142,53.1582,229.3282,163.4187,196.6873,0,U,69206,999,391,.11117E-2,.225621E-2,0
STARLINK-37647,2026-114AB,2026-06-11T17:50:45.788928,15.80996369,.0001072,53.1582,229.3336,48.7520,311.3595,0,U,69207,999,391,.16873E-2,.348064E-2,0
STARLINK-37562,2026-114AC,2026-06-11T20:00:01.999008,15.78100398,.0001064,53.1591,228.8879,86.8252,62.2000,0,U,69208,999,395,-.63266E-3,-.109343E-2,0
STARLINK-37682,2026-114AD,2026-06-11T13:13:20.142048,15.80925909,.0001034,53.1584,230.2636,79.3964,280.7175,0,U,69209,999,388,.76649E-3,.153675E-2,0
STARLINK-37402,2026-114AE,2026-06-11T13:12:15.318720,15.80941217,.000127,53.1584,230.2584,58.8663,301.2484,0,U,69210,999,388,.99244E-3,.200417E-2,0
STARLINK-37613,2026-115A,2026-06-11T20:00:01.999008,15.52602147,.0001057,97.2848,179.8967,87.6080,249.7151,0,U,69211,999,383,-.4149E-1,-.2245498E-1,0
STARLINK-37713,2026-115B,2026-06-11T20:00:01.999008,15.65828820,.0001376,97.2842,179.9734,78.5002,84.8896,0,U,69212,999,383,-.78649E-2,-.729036E-2,0
STARLINK-37716,2026-115C,2026-06-11T20:00:01.999008,15.73225703,.0001747,97.2843,180.0003,88.3386,134.2628,0,U,69213,999,383,-.21865E-1,-.2612086E-1,0
STARLINK-37620,2026-115D,2026-06-11T20:00:01.999008,15.49102394,.0000776,97.2847,179.8615,56.4626,205.2249,0,U,69214,999,383,.13792E-2,.75415E-3,0
STARLINK-37700,2026-115E,2026-06-11T20:00:01.999008,15.49144330,.0001329,97.2841,179.7732,94.3955,315.5666,0,U,69215,999,383,.10108E-2,.55182E-3,0
STARLINK-37766,2026-115F,2026-06-11T20:00:01.999008,15.75513796,.0001417,97.2843,180.0104,82.0744,167.7751,0,U,69216,999,383,-.56058E-2,-.775259E-2,0
STARLINK-37763,2026-115G,2026-06-11T20:00:01.999008,15.71878449,.0001594,97.2846,179.9961,98.9449,118.5300,0,U,69217,999,383,-.17928E-1,-.2045619E-1,0
