STARLINK-37359          
1 69188U 26114G   26162.76691748  .00142106  00000+0  80674-3 0  9992
2 69188  53.1595 229.4899 0001175  97.9539 262.1616 15.78110132  3917
STARLINK-37440          
1 69189U 26114H   26162.66186775  .00095342  00000+0  48036-3 0  9996
2 69189  53.1593 229.5239 0000878  59.8486 300.2624 15.80914184  3906
STARLINK-37282          
1 69190U 26114J   26162.83335647 -.00133146  00000+0 -77307-3 0  9991
2 69190  53.1593 229.0826 0001032  71.1168 343.3150 15.78109149  3953
STARLINK-37422          
1 69191U 26114K   26162.75236654  .00114164  00000+0  57325-3 0  9996
2 69191  53.1586 229.3927 0001021  85.0874 275.0265 15.80914115  3911
STARLINK-37424          
1 69192U 26114L   26162.63391068  .00183675  00000+0  10368-2 0  9993
2 69192  53.1596 230.0793 0000812  39.2526 320.8554 15.78104375  3898
STARLINK-36666          
1 69193U 26114M   26162.83335647 -.00074072  00000+0 -37435-3 0  9994
2 69193  53.1583 228.9900 0001004  77.0207  23.0248 15.80908461  3951
STARLINK-37355          
1 69194U 26114N   26162.75183535  .00234103  00000+0  11528-2 0  9998
2 69194  53.1583 229.3892 0001201  91.3780 268.7380 15.80966813  3917
STARLINK-37166          
1 69195U 26114P   26162.81355690  .00152443  00000+0  76040-3 0  9996
2 69195  53.1583 229.0629 0001002  87.0572 273.0565 15.80928135  3923
STARLINK-36933          
1 69196U 26114Q   26162.75108888  .00186061  00000+0  92346-3 0  9995
2 69196  53.1585 229.3837 0001458  52.6739 307.4416 15.80933612  3910
STARLINK-37419          
1 69197U 26114R   26162.74958985  .00216662  00000+0  10708-2 0  9998
2 69197  53.1582 229.3733 0001314  65.4047 294.7112 15.80936443  3914
STARLINK-37321          
1 69198U 26114S   26162.62239757  .00111860  00000+0  56172-3 0  9995
2 69198  53.1588 230.0024 0001117  47.8924 312.2194 15.80920820  3897
STARLINK-37406          
1 69199U 26114T   26162.62164963  .00233079  00000+0  11492-2 0  9994
2 69199  53.1582 229.9977 0001134  69.1960 290.9184 15.80941103  3890
STARLINK-37761          
1 69200U 26114U   26162.74733564  .00268547  00000+0  13164-2 0  9995
2 69200  53.1580 229.3584 0001163  51.3523 308.7603 15.80970057  3916
STARLINK-37754          
1 69201U 26114V   26162.74639122  .00141951  00000+0  71015-3 0  9990
2 69201  53.1578 229.3513 0001237 100.2885 259.8278 15.80897849  3914
STARLINK-37649          
1 69202U 26114W   26162.74583631  .00093733  00000+0  47265-3 0  9998
2 69202  53.1583 229.3498 0001002  78.8789 281.2347 15.80902656  3915
STARLINK-37604          
1 69203U 26114X   26162.61864683  .00165551  00000+0  82385-3 0  9994
2 69203  53.1582 229.9772 0001201  42.5996 317.5119 15.80938085  3897
STARLINK-37669          
1 69204U 26114Y   26162.74432958  .00242104  00000+0  11900-2 0  9999
2 69204  53.1582 229.3388 0000814 137.1266 222.9820 15.80982946  3911
STARLINK-37691          
1 69205U 26114Z   26162.55909951  .00178574  00000+0  10090-2 0  9999
2 69205  53.1588 230.3175 0001172  90.5523 269.5633 15.78097845  3887
STARLINK-37671          
1 69206U 26114AA  26162.74282753  .00225621  00000+0  11117-2 0  9992
2 69206  53.1582 229.3282 0001142 163.4187 196.6873 15.80977654  3910
STARLINK-37647          
1 69207U 26114AB  26162.74358552  .00348064  00000+0  16873-2 0  9995
2 69207  53.1582 229.3336 0001072  48.7520 311.3595 15.80996369  3910
STARLINK-37562          
1 69208U 26114AC  26162.83335647 -.00109343  00000+0 -63266-3 0  9992
2 69208  53.1591 228.8879 0001064  86.8252  62.2000 15.78100398  3956
STARLINK-37682          
1 69209U 26114AD  26162.55092757  .00153675  00000+0  76649-3 0  9998
2 69209  53.1584 230.2636 0001034  79.3964 280.7175 15.80925909  3889
STARLINK-37402          
1 69210U 26114AE  26162.55017730  .00200417  00000+0  99244-3 0  9991
2 69210  53.1584 230.2584 0001270  58.8663 301.2484 15.80941217  3885
STARLINK-37613          
1 69211U 26115A   26162.83335647 -.02245498  00000+0 -41490-1 0  9994
2 69211  97.2848 179.8967 0001057  87.6080 249.7151 15.52602147  3834
STARLINK-37713          
1 69212U 26115B   26162.83335647 -.00729036  00000+0 -78649-2 0  9995
2 69212  97.2842 179.9734 0001376  78.5002  84.8896 15.65828820  3835
STARLINK-37716          
1 69213U 26115C   26162.83335647 -.02612086  00000+0 -21865-1 0  9991
2 69213  97.2843 180.0003 0001747  88.3386 134.2628 15.73225703  3838
STARLINK-37620          
1 69214U 26115D   26162.83335647  .00075415  00000+0  13792-2 0  9998
2 69214  97.2847 179.8615 0000776  56.4626 205.2249 15.49102394  3833
STARLINK-37700          
1 69215U 26115E   26162.83335647  .00055182  00000+0  10108-2 0  9996
2 69215  97.2841 179.7732 0001329  94.3955 315.5666 15.49144330  3832
STARLINK-37766          
1 69216U 26115F   26162.83335647 -.00775259  00000+0 -56058-2 0  9997
2 69216  97.2843 180.0104 0001417  82.0744 167.7751 15.75513796  3838
STARLINK-37763          
1 69217U 26115G   26162.83335647 -.02045619  00000+0 -17928-1 0  9992
2 69217  97.2846 179.9961 0001594  98.9449 118.5300 15.71878449  3833
